H1 CPF 01  gfz 2021 10 31 13  8042 tandemx   
H2 1003001  6202 36605    2021 10 31 12 59 42 2021 11 05 00 00 42   120 1 1  0 0 0
H9
10 0 59522  65502.000000  0    6431527.905   -599114.397   2386210.904
10 0 59522  65622.000000  0    6044651.993   -742894.230   3210725.957
10 0 59522  65742.000000  0    5549745.108   -865967.910   3978699.357
10 0 59522  65862.000000  0    4955878.304   -964374.967   4676621.260
10 0 59522  65982.000000  0    4273921.605  -1034763.790   5292228.920
10 0 59522  66102.000000  0    3516334.422  -1074478.441   5814720.732
10 0 59522  66222.000000  0    2696928.964  -1081629.325   6234942.077
10 0 59522  66342.000000  0    1830611.472  -1055146.346   6545540.044
10 0 59522  66462.000000  0     933106.632   -994813.460   6741087.127
10 0 59522  66582.000000  0      20668.443   -901283.250   6818170.411
10 0 59522  66702.000000  0    -890214.669   -776071.802   6775445.988
10 0 59522  66822.000000  0   -1783116.508   -621534.355   6613660.169
10 0 59522  66942.000000  0   -2641967.770   -440821.261   6335637.032
10 0 59522  67062.000000  0   -3451344.466   -237815.393   5946233.188
10 0 59522  67182.000000  0   -4196747.176    -17051.858   5452259.098
10 0 59522  67302.000000  0   -4864866.021    216378.673   4862366.135
10 0 59522  67422.000000  0   -5443825.506    456940.930   4186900.366
10 0 59522  67542.000000  0   -5923404.358    698778.910   3437724.671
10 0 59522  67662.000000  0   -6295225.076    935849.828   2628012.697
10 0 59522  67782.000000  0   -6552910.227   1162065.316   1772016.534
10 0 59522  67902.000000  0   -6692200.464   1371435.940    884812.248
10 0 59522  68022.000000  0   -6711031.370   1558216.109    -17972.661
10 0 59522  68142.000000  0   -6609564.886   1717045.344   -920443.706
10 0 59522  68262.000000  0   -6390175.355   1843081.502  -1806727.975
10 0 59522  68382.000000  0   -6057392.320   1932123.829  -2661260.890
10 0 59522  68502.000000  0   -5617800.002   1980722.677  -3469066.793
10 0 59522  68622.000000  0   -5079895.773   1986271.736  -4216024.949
10 0 59522  68742.000000  0   -4453913.669   1947081.456  -4889114.977
10 0 59522  68862.000000  0   -3751618.075   1862432.536  -5476638.268
10 0 59522  68982.000000  0   -2986073.813   1732608.846  -5968412.089
10 0 59522  69102.000000  0   -2171397.872   1558909.218  -6355935.954
10 0 59522  69222.000000  0   -1322495.565   1343638.178  -6632527.549
10 0 59522  69342.000000  0    -454788.727   1090075.811  -6793425.636
10 0 59522  69462.000000  0     416059.256    802427.929  -6835862.387
10 0 59522  69582.000000  0    1274418.189    485757.897  -6759106.874
10 0 59522  69702.000000  0    2104966.262    145899.272  -6564477.869
10 0 59522  69822.000000  0    2892957.342   -210648.723  -6255322.909
10 0 59522  69942.000000  0    3624479.027   -576841.207  -5836967.254
10 0 59522  70062.000000  0    4286695.875   -945222.068  -5316630.378
10 0 59522  70182.000000  0    4868076.406  -1308070.707  -4703313.875
10 0 59522  70302.000000  0    5358600.432  -1657559.725  -4007657.200
10 0 59522  70422.000000  0    5749940.663  -1985919.217  -3241762.971
10 0 59522  70542.000000  0    6035615.170  -2285605.061  -2418993.677
10 0 59522  70662.000000  0    6211106.159  -2549467.519  -1553742.045
10 0 59522  70782.000000  0    6273941.450  -2770915.563   -661179.415
10 0 59522  70902.000000  0    6223736.803  -2944073.159    243013.525
10 0 59522  71022.000000  0    6062196.714  -3063923.254   1142928.409
10 0 59522  71142.000000  0    5793073.839  -3126435.606   2022718.159
10 0 59522  71262.000000  0    5422084.547  -3128674.589   2866885.700
10 0 59522  71382.000000  0    4956786.023  -3068884.461   3660564.887
10 0 59522  71502.000000  0    4406416.947  -2946548.614   4389787.920
10 0 59522  71622.000000  0    3781708.660  -2762424.146   5041734.046
10 0 59522  71742.000000  0    3094667.571  -2518550.100   5604956.734
10 0 59522  71862.000000  0    2358336.241  -2218227.662   6069581.499
10 0 59522  71982.000000  0    1586540.025  -1865975.132   6427474.154
10 0 59522  72102.000000  0     793623.290  -1467458.453   6672377.444
10 0 59522  72222.000000  0      -5819.801  -1029398.219   6800014.315
10 0 59522  72342.000000  0    -797214.150   -559454.868   6808157.334
10 0 59522  72462.000000  0   -1566268.295    -66094.611   6696664.495
10 0 59522  72582.000000  0   -2299231.361    441562.762   6467481.567
10 0 59522  72702.000000  0   -2983138.371    953911.722   6124610.583
10 0 59522  72822.000000  0   -3606040.601   1461041.658   5674044.718
10 0 59522  72942.000000  0   -4157217.868   1952927.768   5123670.062
10 0 59522  73062.000000  0   -4627369.229   2419629.452   4483134.060
10 0 59522  73182.000000  0   -5008776.975   2851492.233   3763680.372
10 0 59522  73302.000000  0   -5295439.868   3239348.221   2977954.092
10 0 59522  73422.000000  0   -5483174.104   3574711.307   2139780.463
10 0 59522  73542.000000  0   -5569679.372   3849963.522   1263919.544
10 0 59522  73662.000000  0   -5554566.817   4058526.012    365799.705
10 0 59522  73782.000000  0   -5439347.306   4195010.172   -538761.711
10 0 59522  73902.000000  0   -5227382.381   4255346.064  -1433845.449
10 0 59522  74022.000000  0   -4923797.489   4236884.717  -2303720.350
10 0 59522  74142.000000  0   -4535358.440   4138469.659  -3133128.131
10 0 59522  74262.000000  0   -4070316.744   3960477.618  -3907555.377
10 0 59522  74382.000000  0   -3538228.145   3704827.901  -4613487.555
10 0 59522  74502.000000  0   -2949749.735   3374961.383  -5238640.558
10 0 59522  74622.000000  0   -2316422.505   2975790.220  -5772166.186
10 0 59522  74742.000000  0   -1650442.336   2513620.388  -6204831.806
10 0 59522  74862.000000  0    -964423.394   1996046.901  -6529169.036
10 0 59522  74982.000000  0    -271161.048   1431826.429  -6739590.523
10 0 59522  75102.000000  0     416602.510    830728.936  -6832476.076
10 0 59522  75222.000000  0    1086406.213    203371.338  -6806228.963
10 0 59522  75342.000000  0    1726291.694   -438966.434  -6661300.991
10 0 59522  75462.000000  0    2325011.386  -1084539.377  -6400184.157
10 0 59522  75582.000000  0    2872222.352  -1721346.519  -6027372.935
10 0 59522  75702.000000  0    3358663.228  -2337348.273  -5549295.094
10 0 59522  75822.000000  0    3776313.111  -2920691.253  -4974213.457
10 0 59522  75942.000000  0    4118528.208  -3459936.845  -4312093.038
10 0 59522  76062.000000  0    4380151.490  -3944285.893  -3574438.095
10 0 59522  76182.000000  0    4557596.648  -4363797.497  -2774102.078
10 0 59522  76302.000000  0    4648903.122  -4709597.281  -1925069.349
10 0 59522  76422.000000  0    4653759.614  -4974069.784  -1042212.874
10 0 59522  76542.000000  0    4573493.872  -5151029.741   -141030.991
10 0 59522  76662.000000  0    4411028.969  -5235866.155    762630.360
10 0 59522  76782.000000  0    4170807.681  -5225656.543   1652864.207
10 0 59522  76902.000000  0    3858684.710  -5119246.383   2513992.327
10 0 59522  77022.000000  0    3481790.695  -4917293.293   3330848.998
10 0 59522  77142.000000  0    3048371.968  -4622274.604   4089055.351
10 0 59522  77262.000000  0    2567609.708  -4238457.260   4775276.867
10 0 59522  77382.000000  0    2049423.753  -3771831.952   5377459.536
10 0 59522  77502.000000  0    1504265.548  -3230013.724   5885040.477
10 0 59522  77622.000000  0     942904.536  -2622110.379   6289129.532
10 0 59522  77742.000000  0     376213.651  -1958563.759   6582658.636
10 0 59522  77862.000000  0    -185041.843  -1250966.638   6760498.592
10 0 59522  77982.000000  0    -730407.777   -511858.199   6819544.028
10 0 59522  78102.000000  0   -1249934.732    245499.422   6758764.197
10 0 59522  78222.000000  0   -1734359.000   1007358.794   6579219.612
10 0 59522  78342.000000  0   -2175267.393   1759735.929   6284044.529
10 0 59522  78462.000000  0   -2565244.047   2488666.150   5878395.639
10 0 59522  78582.000000  0   -2897996.366   3180463.875   5369367.609
10 0 59522  78702.000000  0   -3168459.262   3821981.745   4765875.603
10 0 59522  78822.000000  0   -3372875.331   4400864.906   4078505.006
10 0 59522  78942.000000  0   -3508848.536   4905795.168   3319329.859
10 0 59522  79062.000000  0   -3575370.148   5326719.592   2501701.992
10 0 59522  79182.000000  0   -3572816.059   5655057.106   1640014.111
10 0 59522  79302.000000  0   -3502915.257   5883877.677    749442.543
10 0 59522  79422.000000  0   -3368691.152   6008052.516   -154325.650
10 0 59522  79542.000000  0   -3174375.683   6024368.801  -1055378.491
10 0 59522  79662.000000  0   -2925298.884   5931604.628  -1937869.783
10 0 59522  79782.000000  0   -2627754.476   5730561.671  -2786307.674
10 0 59522  79902.000000  0   -2288847.590   5424056.933  -3585830.353
10 0 59522  80022.000000  0   -1916330.505   5016876.463  -4322468.352
10 0 59522  80142.000000  0   -1518428.410   4515689.168  -4983386.291
10 0 59522  80262.000000  0   -1103661.372   3928927.436  -5557099.655
10 0 59522  80382.000000  0    -680665.035   3266636.815  -6033666.679
10 0 59522  80502.000000  0    -258013.529   2540296.069  -6404851.045
10 0 59522  80622.000000  0     155950.754   1762613.313  -6664251.892
10 0 59522  80742.000000  0     553276.863    947303.622  -6807403.847
10 0 59522  80862.000000  0     926553.906    108849.666  -6831846.158
10 0 59522  80982.000000  0    1269045.730   -737751.025  -6737160.107
10 0 59522  81102.000000  0    1574808.938  -1577248.209  -6524973.869
10 0 59522  81222.000000  0    1838793.627  -2394405.843  -6198937.467
10 0 59522  81342.000000  0    2056926.381  -3174272.102  -5764667.849
10 0 59522  81462.000000  0    2226173.576  -3902451.017  -5229663.624
10 0 59522  81582.000000  0    2344583.958  -4565369.879  -4603185.325
10 0 59522  81702.000000  0    2411309.086  -5150534.180  -3896105.365
10 0 59522  81822.000000  0    2426601.530  -5646769.411  -3120729.993
10 0 59522  81942.000000  0    2391790.553  -6044444.014  -2290592.449
99
